NORAD_CAT_ID,OBJECT_NAME,OBJECT_TYPE,EPOCH,MEAN_MOTION,ECCENTRICITY,INCLINATION,RA_OF_ASC_NODE,ARG_OF_PERICENTER,MEAN_ANOMALY,BSTAR,MEAN_MOTION_DOT,MEAN_MOTION_DDOT,TLE_LINE0,TLE_LINE1,TLE_LINE2,SEMIMAJOR_AXIS,PERIOD,APOGEE,PERIGEE,DECAYED
56479.0,STARLINK-6044,PAYLOAD,2023-05-29 12:14:56,15.69925416,0.0003544,69.9988,192.4757,263.4745,96.6048,0.00015672,0.00018675,0.0,0 STARLINK-6044,1 56479U 23064AH  23149.51038170  .00018675  00000-0  15672-3 0  9991,2 56479  69.9988 192.4757 0003544 263.4745  96.6048 15.69925416  2973,6737.247,91.724,361.5,356.725,0.0
56479.0,STARLINK-6044,PAYLOAD,2023-05-29 22:00:00,15.69887041,0.0003501,69.9994,191.3331,262.8199,232.8483,0.00062447,0.00075438,0.0,0 STARLINK-6044,1 56479U 23064AH  23149.91667824  .00075438  00000-0  62447-3 0  9991,2 56479  69.9994 191.3331 0003501 262.8199 232.8483 15.69887041  1309,6737.357,91.726,361.581,356.863,0.0
56479.0,STARLINK-6044,PAYLOAD,2023-05-30 11:11:13,15.69941998,0.0003489,69.999,189.7884,263.5478,96.5321,0.00013305,0.00015828,0.0,0 STARLINK-6044,1 56479U 23064AH  23150.46613069  .00015828  00000-0  13305-3 0  9991,2 56479  69.9990 189.7884 0003489 263.5478  96.5321 15.69941998  3470,6737.2,91.723,361.416,356.714,0.0
56479.0,STARLINK-6044,PAYLOAD,2023-05-30 12:42:58,15.69940958,0.0003481,69.999,189.6088,265.6332,94.4466,0.00015357,0.00018306,0.0,0 STARLINK-6044,1 56479U 23064AH  23150.52984734  .00018306  00000-0  15357-3 0  9991,2 56479  69.9990 189.6088 0003481 265.6332  94.4466 15.69940958  3134,6737.203,91.723,361.413,356.723,0.0
56479.0,STARLINK-6044,PAYLOAD,2023-05-30 18:49:59,15.69933098,0.0003464,69.9992,188.8929,265.4115,94.6685,5.7542e-05,6.714e-05,0.0,0 STARLINK-6044,1 56479U 23064AH  23150.78471450  .00006714  00000-0  57542-4 0  9998,2 56479  69.9992 188.8929 0003464 265.4115  94.6685 15.69933098  3524,6737.225,91.724,361.424,356.757,0.0
56479.0,STARLINK-6044,PAYLOAD,2023-05-30 20:21:44,15.69934141,0.0003478,69.9991,188.7137,265.2014,94.8785,5.974e-05,6.979e-05,0.0,0 STARLINK-6044,1 56479U 23064AH  23150.84843062  .00006979  00000-0  59740-4 0  9992,2 56479  69.9991 188.7137 0003478 265.2014  94.8785 15.69934141  3189,6737.222,91.724,361.431,356.744,0.0
56479.0,STARLINK-6044,PAYLOAD,2023-05-31 02:28:45,15.69922034,0.0003462,69.9989,187.997,266.7682,93.3118,3.6481e-06,2.26e-06,0.0,0 STARLINK-6044,1 56479U 23064AH  23151.10330032  .00000226  00000-0  36481-5 0  9997,2 56479  69.9989 187.9970 0003462 266.7682  93.3118 15.69922034  3577,6737.257,91.724,361.454,356.79,0.0
56479.0,STARLINK-6044,PAYLOAD,2023-05-31 10:07:30,15.69936992,0.0003438,69.999,187.1014,264.4194,95.6609,8.6655e-05,0.00010225,0.0,0 STARLINK-6044,1 56479U 23064AH  23151.42188102  .00010225  00000-0  86655-4 0  9998,2 56479  69.9990 187.1014 0003438 264.4194  95.6609 15.69936992  3620,6737.214,91.723,361.396,356.763,0.0
56479.0,STARLINK-6044,PAYLOAD,2023-05-31 11:39:15,15.69937405,0.0003459,69.999,186.9221,264.5628,95.5173,9.7382e-05,0.00011519,0.0,0 STARLINK-6044,1 56479U 23064AH  23151.48559826  .00011519  00000-0  97382-4 0  9995,2 56479  69.9990 186.9221 0003459 264.5628  95.5173 15.69937405  3280,6737.213,91.723,361.408,356.748,0.0
56479.0,STARLINK-6044,PAYLOAD,2023-05-31 14:42:46,15.69926878,0.0003483,69.9988,186.5634,264.4328,95.647,8.706e-05,0.0001027,0.0,0 STARLINK-6044,1 56479U 23064AH  23151.61303301  .00010270  00000-0  87060-4 0  9990,2 56479  69.9988 186.5634 0003483 264.4328  95.6470 15.69926878  3658,6737.243,91.724,361.455,356.762,0.0
56479.0,STARLINK-6044,PAYLOAD,2023-05-31 20:49:46,15.69931367,0.0003457,69.9989,185.8474,265.6702,94.4099,6.2822e-05,7.35e-05,0.0,0 STARLINK-6044,1 56479U 23064AH  23151.86789867  .00007350  00000-0  62822-4 0  9996,2 56479  69.9989 185.8474 0003457 265.6702  94.4099 15.69931367  3342,6737.23,91.724,361.424,356.766,0.0
56479.0,STARLINK-6044,PAYLOAD,2023-06-01 02:56:47,15.69924217,0.0003443,69.9988,185.1311,265.1838,94.8965,1.3651e-05,1.429e-05,0.0,0 STARLINK-6044,1 56479U 23064AH  23152.12276702  .00001429  00000-0  13651-4 0  9992,2 56479  69.9988 185.1311 0003443 265.1838  94.8965 15.69924217  3739,6737.251,91.724,361.435,356.796,0.0
56479.0,STARLINK-6044,PAYLOAD,2023-06-01 10:35:32,15.69932107,0.0003427,69.9986,184.2353,265.0387,95.0417,3.5134e-05,4.015e-05,0.0,0 STARLINK-6044,1 56479U 23064AH  23152.44134826  .00004015  00000-0  35134-4 0  9991,2 56479  69.9986 184.2353 0003427 265.0387  95.0417 15.69932107  3432,6737.228,91.724,361.402,356.784,0.0
56479.0,STARLINK-6044,PAYLOAD,2023-06-01 19:46:03,15.69928603,0.0003396,69.9984,183.1602,266.0518,94.0289,1.8036e-05,1.957e-05,0.0,0 STARLINK-6044,1 56479U 23064AH  23152.82364934  .00001957  00000-0  18036-4 0  9992,2 56479  69.9984 183.1602 0003396 266.0518  94.0289 15.69928603  3495,6737.238,91.724,361.391,356.815,0.0
56479.0,STARLINK-6044,PAYLOAD,2023-06-02 09:31:49,15.69918523,0.0003317,69.9979,181.5478,262.7763,97.3056,1.3352e-05,1.393e-05,0.0,0 STARLINK-6044,1 56479U 23064AH  23153.39710589  .00001393  00000-0  13352-4 0  9996,2 56479  69.9979 181.5478 0003317 262.7763  97.3056 15.69918523  3937,6737.267,91.725,361.367,356.897,0.0
56479.0,STARLINK-6044,PAYLOAD,2023-06-02 11:03:34,15.69929164,0.0003459,69.9976,181.3686,262.4863,97.594,2.9689e-05,3.359e-05,0.0,0 STARLINK-6044,1 56479U 23064AH  23153.46081676  .00003359  00000-0  29689-4 0  9996,2 56479  69.9976 181.3686 0003459 262.4863  97.5940 15.69929164  3597,6737.237,91.724,361.432,356.771,0.0
56479.0,STARLINK-6044,PAYLOAD,2023-06-03 09:59:52,15.6991586,0.0002885,69.9984,178.6806,270.1506,89.9359,8.3423e-06,7.9e-06,0.0,0 STARLINK-6044,1 56479U 23064AH  23154.41658116  .00000790  00000-0  83423-5 0  9994,2 56479  69.9984 178.6806 0002885 270.1506  89.9359 15.69915860  4094,6737.275,91.725,361.083,357.196,0.0
56479.0,STARLINK-6044,PAYLOAD,2023-06-03 11:31:37,15.69922131,0.0003045,69.9986,178.5027,271.573,88.5117,9.0166e-06,8.72e-06,0.0,0 STARLINK-6044,1 56479U 23064AH  23154.48029426  .00000872  00000-0  90166-5 0  9990,2 56479  69.9986 178.5027 0003045 271.5730  88.5117 15.69922131  3751,6737.257,91.724,361.173,357.07,0.0
56479.0,STARLINK-6044,PAYLOAD,2023-06-03 19:10:21,15.69945984,0.0003872,69.9968,177.6058,269.8081,90.267,5.1471e-05,5.986e-05,0.0,0 STARLINK-6044,1 56479U 23064AH  23154.79886249  .00005986  00000-0  51471-4 0  9994,2 56479  69.9968 177.6058 0003872 269.8081  90.2670 15.69945984  3803,6737.189,91.723,361.662,356.445,0.0
56479.0,STARLINK-6044,PAYLOAD,2023-06-04 10:27:53,15.69933497,0.0003537,69.9988,175.8168,266.3492,93.7299,3.7271e-05,4.273e-05,0.0,0 STARLINK-6044,1 56479U 23064AH  23155.43603599  .00004273  00000-0  37271-4 0  9991,2 56479  69.9988 175.8168 0003537 266.3492  93.7299 15.69933497  4254,6737.224,91.724,361.472,356.706,0.0
56479.0,STARLINK-6044,PAYLOAD,2023-06-04 13:31:23,15.6993057,0.0003556,69.998,175.4573,263.237,96.8421,1.8993e-05,2.072e-05,0.0,0 STARLINK-6044,1 56479U 23064AH  23155.56346931  .00002072  00000-0  18993-4 0  9994,2 56479  69.9980 175.4573 0003556 263.2370  96.8421 15.69930570  3927,6737.233,91.724,361.493,356.702,0.0
56479.0,STARLINK-6044,PAYLOAD,2023-06-04 15:03:08,15.69931009,0.0003561,69.998,175.2782,263.0471,97.032,1.9508e-05,2.134e-05,0.0,0 STARLINK-6044,1 56479U 23064AH  23155.62718562  .00002134  00000-0  19508-4 0  9996,2 56479  69.9980 175.2782 0003561 263.0471  97.0320 15.69931009  3933,6737.231,91.724,361.496,356.697,0.0
56479.0,STARLINK-6044,PAYLOAD,2023-06-05 04:48:55,15.69926527,0.0003522,69.9983,173.6661,266.893,93.1862,1.6536e-06,-1.4e-07,0.0,0 STARLINK-6044,1 56479U 23064AH  23156.20063962 -.00000014  00000-0  16536-5 0  9993,2 56479  69.9983 173.6661 0003522 266.8930  93.1862 15.69926527  4378,6737.244,91.724,361.482,356.736,0.0
56479.0,STARLINK-6044,PAYLOAD,2023-06-05 12:27:41,15.6992195,0.0003426,69.9972,172.7701,267.2575,92.8229,5.6761e-06,4.7e-06,0.0,0 STARLINK-6044,1 56479U 23064AH  23156.51922852  .00000470  00000-0  56761-5 0  9998,2 56479  69.9972 172.7701 0003426 267.2575  92.8229 15.69921950  4079,6737.257,91.724,361.43,356.814,0.0
56479.0,STARLINK-6044,PAYLOAD,2023-06-05 18:34:41,15.69928466,0.0003493,69.9971,172.0539,266.5077,93.5719,3.0393e-07,-1.76e-06,0.0,0 STARLINK-6044,1 56479U 23064AH  23156.77409135 -.00000176  00000-0  30393-6 0  9998,2 56479  69.9971 172.0539 0003493 266.5077  93.5719 15.69928466  4119,6737.239,91.724,361.457,356.75,0.0
56479.0,STARLINK-6044,PAYLOAD,2023-06-06 08:20:27,15.6992613,0.0003493,69.9975,170.4413,263.1975,96.8824,1.5812e-05,1.689e-05,0.0,0 STARLINK-6044,1 56479U 23064AH  23157.34753802  .00001689  00000-0  15812-4 0  9991,2 56479  69.9975 170.4413 0003493 263.1975  96.8824 15.69926130  4553,6737.245,91.724,361.464,356.757,0.0
56479.0,STARLINK-6044,PAYLOAD,2023-06-06 11:23:57,15.69931704,0.00034,69.9982,170.0841,262.8768,97.2041,-1.9802e-06,-4.51e-06,0.0,0 STARLINK-6044,1 56479U 23064AH  23157.47497085 -.00000451  00000-0 -19802-5 0  9995,2 56479  69.9982 170.0841 0003400 262.8768  97.2041 15.69931704  4229,6737.229,91.724,361.385,356.804,0.0
56479.0,STARLINK-6044,PAYLOAD,2023-06-06 12:55:42,15.69927734,0.0003437,69.998,169.9048,263.5897,96.4907,6.7147e-06,5.95e-06,0.0,0 STARLINK-6044,1 56479U 23064AH  23157.53868914  .00000595  00000-0  67147-5 0  9997,2 56479  69.9980 169.9048 0003437 263.5897  96.4907 15.69927734  4235,6737.241,91.724,361.421,356.79,0.0
56479.0,STARLINK-6044,PAYLOAD,2023-06-07 10:20:14,15.69920954,0.000337,69.9984,167.397,263.8809,96.2003,1.6327e-05,1.751e-05,0.0,0 STARLINK-6044,1 56479U 23064AH  23158.43072676  .00001751  00000-0  16327-4 0  9997,2 56479  69.9984 167.3970 0003370 263.8809  96.2003 15.69920954  4723,6737.26,91.724,361.396,356.855,0.0
56479.0,STARLINK-6044,PAYLOAD,2023-06-07 13:23:44,15.69949066,0.0003282,69.9979,167.0384,270.3931,89.6889,-4.3033e-05,-5.389e-05,0.0,0 STARLINK-6044,1 56479U 23064AH  23158.55814972 -.00005389  00000-0 -43033-4 0  9990,2 56479  69.9979 167.0384 0003282 270.3931  89.6889 15.69949066  4390,6737.18,91.723,361.256,356.834,0.0
